start=new Date('2022-12-16T00:00:00.000Z').valueOf();
sats=[{"NORAD_CAT_ID":"51769","REF_FRAME":"TEME","COUNTRY_CODE":"US","CENTER_NAME":"EARTH","GP_ID":"220530088","TLE_LINE2":"2 51769  53.2177 236.4048 0002655  32.0364 328.0789 15.08842767 44461","OBJECT_TYPE":"PAYLOAD","APOAPSIS":"541.574","DECAY_DATE":null,"MEAN_MOTION_DOT":"0.00002166","FILE":"3702726","ARG_OF_PERICENTER":"32.0364","EPHEMERIS_TYPE":"0","REV_AT_EPOCH":"4446","EPOCH":"2022-12-15T16:17:52.033344","OBJECT_NAME":"STARLINK-3621","BSTAR":"0.00015414000000","ELEMENT_SET_NO":"999","SEMIMAJOR_AXIS":"6917.872","SITE":"AFWTR","MEAN_MOTION_DDOT":"0.0000000000000","RA_OF_ASC_NODE":"236.4048","PERIOD":"95.437","MEAN_ELEMENT_THEORY":"SGP4","PERIAPSIS":"537.900","INCLINATION":"53.2177","OBJECT_ID":"2022-017B","LAUNCH_DATE":"2022-02-25","TLE_LINE1":"1 51769U 22017B   22349.67907446  .00002166  00000-0  15414-3 0  9996","ECCENTRICITY":"0.00026550","RCS_SIZE":"LARGE","MEAN_MOTION":"15.08842767","TIME_SYSTEM":"UTC","CLASSIFICATION_TYPE":"U","MEAN_ANOMALY":"328.0789"},{"SITE":"AFWTR","MEAN_MOTION_DDOT":"0.0000000000000","PERIOD":"95.437","RA_OF_ASC_NODE":"236.3748","MEAN_ELEMENT_THEORY":"SGP4","PERIAPSIS":"538.124","INCLINATION":"53.2167","OBJECT_ID":"2022-017C","LAUNCH_DATE":"2022-02-25","TLE_LINE1":"1 51770U 22017C   22349.68276014  .00001695  00000-0  12460-3 0  9993","ECCENTRICITY":"0.00023390","RCS_SIZE":"LARGE","MEAN_MOTION":"15.08841237","TIME_SYSTEM":"UTC","CLASSIFICATION_TYPE":"U","MEAN_ANOMALY":"329.0795","NORAD_CAT_ID":"51770","REF_FRAME":"TEME","COUNTRY_CODE":"US","CENTER_NAME":"EARTH","TLE_LINE2":"2 51770  53.2167 236.3748 0002339  31.0335 329.0795 15.08841237 44474","GP_ID":"220528837","OBJECT_TYPE":"PAYLOAD","APOAPSIS":"541.360","DECAY_DATE":null,"MEAN_MOTION_DOT":"0.00001695","FILE":"3702726","EPHEMERIS_TYPE":"0","ARG_OF_PERICENTER":"31.0335","REV_AT_EPOCH":"4447","EPOCH":"2022-12-15T16:23:10.476096","OBJECT_NAME":"STARLINK-3612","BSTAR":"0.00012460000000","ELEMENT_SET_NO":"999","SEMIMAJOR_AXIS":"6917.877"},{"ARG_OF_PERICENTER":"26.0314","EPHEMERIS_TYPE":"0","REV_AT_EPOCH":"4447","DECAY_DATE":null,"APOAPSIS":"541.401","MEAN_MOTION_DOT":"0.00001510","FILE":"3702726","ELEMENT_SET_NO":"999","SEMIMAJOR_AXIS":"6917.882","EPOCH":"2022-12-15T17:49:20.424000","OBJECT_NAME":"STARLINK-3614","BSTAR":"0.00011299000000","CENTER_NAME":"EARTH","COUNTRY_CODE":"US","NORAD_CAT_ID":"51771","REF_FRAME":"TEME","GP_ID":"220529087","TLE_LINE2":"2 51771  53.2166 236.1163 0002391  26.0314 334.0798 15.08839525 44478","OBJECT_TYPE":"PAYLOAD","RCS_SIZE":"LARGE","MEAN_MOTION":"15.08839525","OBJECT_ID":"2022-017D","ECCENTRICITY":"0.00023910","TLE_LINE1":"1 51771U 22017D   22349.74259750  .00001510  00000-0  11299-3 0  9994","LAUNCH_DATE":"2022-02-25","CLASSIFICATION_TYPE":"U","MEAN_ANOMALY":"334.0798","TIME_SYSTEM":"UTC","RA_OF_ASC_NODE":"236.1163","PERIOD":"95.438","MEAN_MOTION_DDOT":"0.0000000000000","SITE":"AFWTR","PERIAPSIS":"538.093","MEAN_ELEMENT_THEORY":"SGP4","INCLINATION":"53.2166"},{"TLE_LINE2":"2 51772  53.2175 236.1499 0001955  38.6628 321.4504 15.08838413 44462","GP_ID":"220529338","OBJECT_TYPE":"PAYLOAD","NORAD_CAT_ID":"51772","REF_FRAME":"TEME","COUNTRY_CODE":"US","CENTER_NAME":"EARTH","EPOCH":"2022-12-15T17:37:21.724608","OBJECT_NAME":"STARLINK-3623","BSTAR":"0.00015443000000","ELEMENT_SET_NO":"999","SEMIMAJOR_AXIS":"6917.885","DECAY_DATE":null,"APOAPSIS":"541.103","MEAN_MOTION_DOT":"0.00002170","FILE":"3702726","EPHEMERIS_TYPE":"0","ARG_OF_PERICENTER":"38.6628","REV_AT_EPOCH":"4446","PERIAPSIS":"538.398","MEAN_ELEMENT_THEORY":"SGP4","INCLINATION":"53.2175","SITE":"AFWTR","MEAN_MOTION_DDOT":"0.0000000000000","RA_OF_ASC_NODE":"236.1499","PERIOD":"95.438","TIME_SYSTEM":"UTC","CLASSIFICATION_TYPE":"U","MEAN_ANOMALY":"321.4504","OBJECT_ID":"2022-017E","TLE_LINE1":"1 51772U 22017E   22349.73427922  .00002170  00000-0  15443-3 0  9990","ECCENTRICITY":"0.00019550","LAUNCH_DATE":"2022-02-25","RCS_SIZE":"MEDIUM","MEAN_MOTION":"15.08838413"},{"MEAN_ELEMENT_THEORY":"SGP4","PERIAPSIS":"537.837","INCLINATION":"53.2166","RA_OF_ASC_NODE":"235.8089","PERIOD":"95.437","MEAN_MOTION_DDOT":"0.0000000000000","SITE":"AFWTR","CLASSIFICATION_TYPE":"U","MEAN_ANOMALY":"334.7567","TIME_SYSTEM":"UTC","MEAN_MOTION":"15.08842726","RCS_SIZE":"LARGE","OBJECT_ID":"2022-017F","ECCENTRICITY":"0.00027460","TLE_LINE1":"1 51773U 22017F   22349.80788013  .00001182  00000-0  92357-4 0  9992","LAUNCH_DATE":"2022-02-25","TLE_LINE2":"2 51773  53.2166 235.8089 0002746  25.3559 334.7567 15.08842726 44489","GP_ID":"220529588","OBJECT_TYPE":"PAYLOAD","CENTER_NAME":"EARTH","COUNTRY_CODE":"US","NORAD_CAT_ID":"51773","REF_FRAME":"TEME","ELEMENT_SET_NO":"999","SEMIMAJOR_AXIS":"6917.872","EPOCH":"2022-12-15T19:23:20.843232","OBJECT_NAME":"STARLINK-3624","BSTAR":"0.00009235700000","EPHEMERIS_TYPE":"0","ARG_OF_PERICENTER":"25.3559","REV_AT_EPOCH":"4448","APOAPSIS":"541.637","DECAY_DATE":null,"FILE":"3702726","MEAN_MOTION_DOT":"0.00001182"},{"NORAD_CAT_ID":"51774","REF_FRAME":"TEME","COUNTRY_CODE":"US","CENTER_NAME":"EARTH","GP_ID":"220528338","TLE_LINE2":"2 51774  53.2161 235.5824 0002841  22.6876 337.4242 15.08840123 44453","OBJECT_TYPE":"PAYLOAD","DECAY_DATE":null,"APOAPSIS":"541.710","MEAN_MOTION_DOT":"0.00002702","FILE":"3702726","REV_AT_EPOCH":"4445","EPHEMERIS_TYPE":"0","ARG_OF_PERICENTER":"22.6876","EPOCH":"2022-12-15T20:37:31.827360","BSTAR":"0.00018779000000","OBJECT_NAME":"STARLINK-3629","SEMIMAJOR_AXIS":"6917.880","ELEMENT_SET_NO":"999","MEAN_MOTION_DDOT":"0.0000000000000","SITE":"AFWTR","RA_OF_ASC_NODE":"235.5824","PERIOD":"95.438","PERIAPSIS":"537.780","MEAN_ELEMENT_THEORY":"SGP4","INCLINATION":"53.2161","OBJECT_ID":"2022-017G","LAUNCH_DATE":"2022-02-25","TLE_LINE1":"1 51774U 22017G   22349.85939615  .00002702  00000-0  18779-3 0  9998","ECCENTRICITY":"0.00028410","RCS_SIZE":"LARGE","MEAN_MOTION":"15.08840123","TIME_SYSTEM":"UTC","CLASSIFICATION_TYPE":"U","MEAN_ANOMALY":"337.4242"},{"MEAN_ANOMALY":"332.8481","CLASSIFICATION_TYPE":"U","TIME_SYSTEM":"UTC","MEAN_MOTION":"15.08832910","RCS_SIZE":"LARGE","ECCENTRICITY":"0.00030860","TLE_LINE1":"1 51775U 22017H   22349.73796116  .00001485  00000-0  11144-3 0  9999","LAUNCH_DATE":"2022-02-25","OBJECT_ID":"2022-017H","INCLINATION":"53.2169","PERIAPSIS":"537.632","MEAN_ELEMENT_THEORY":"SGP4","RA_OF_ASC_NODE":"236.1380","PERIOD":"95.438","SITE":"AFWTR","MEAN_MOTION_DDOT":"0.0000000000000","SEMIMAJOR_AXIS":"6917.902","ELEMENT_SET_NO":"999","BSTAR":"0.00011144000000","OBJECT_NAME":"STARLINK-3620","EPOCH":"2022-12-15T17:42:39.844224","REV_AT_EPOCH":"4447","EPHEMERIS_TYPE":"0","ARG_OF_PERICENTER":"27.2672","MEAN_MOTION_DOT":"0.00001485","FILE":"3702726","APOAPSIS":"541.902","DECAY_DATE":null,"OBJECT_TYPE":"PAYLOAD","GP_ID":"220528588","TLE_LINE2":"2 51775  53.2169 236.1380 0003086  27.2672 332.8481 15.08832910 44474","COUNTRY_CODE":"US","CENTER_NAME":"EARTH","REF_FRAME":"TEME","NORAD_CAT_ID":"51775"},{"APOAPSIS":"541.528","DECAY_DATE":null,"MEAN_MOTION_DOT":"0.00000375","FILE":"3702726","REV_AT_EPOCH":"4445","ARG_OF_PERICENTER":"26.9520","EPHEMERIS_TYPE":"0","EPOCH":"2022-12-15T20:32:13.507296","BSTAR":"0.00004168900000","OBJECT_NAME":"STARLINK-3608","SEMIMAJOR_AXIS":"6917.859","ELEMENT_SET_NO":"999","NORAD_CAT_ID":"51776","REF_FRAME":"TEME","COUNTRY_CODE":"US","CENTER_NAME":"EARTH","TLE_LINE2":"2 51776  53.2178 235.6109 0002608  26.9520 333.1607 15.08847074 44454","GP_ID":"220529839","OBJECT_TYPE":"PAYLOAD","OBJECT_ID":"2022-017J","TLE_LINE1":"1 51776U 22017J   22349.85571189  .00000375  00000-0  41689-4 0  9999","ECCENTRICITY":"0.00026080","LAUNCH_DATE":"2022-02-25","RCS_SIZE":"LARGE","MEAN_MOTION":"15.08847074","TIME_SYSTEM":"UTC","CLASSIFICATION_TYPE":"U","MEAN_ANOMALY":"333.1607","MEAN_MOTION_DDOT":"0.0000000000000","SITE":"AFWTR","RA_OF_ASC_NODE":"235.6109","PERIOD":"95.437","PERIAPSIS":"537.920","MEAN_ELEMENT_THEORY":"SGP4","INCLINATION":"53.2178"},{"TIME_SYSTEM":"UTC","CLASSIFICATION_TYPE":"U","MEAN_ANOMALY":"335.5175","OBJECT_ID":"2022-017K","TLE_LINE1":"1 51777U 22017K   22349.73059644  .00001517  00000-0  11340-3 0  9993","ECCENTRICITY":"0.00027810","LAUNCH_DATE":"2022-02-25","MEAN_MOTION":"15.08841160","RCS_SIZE":"LARGE","MEAN_ELEMENT_THEORY":"SGP4","PERIAPSIS":"537.818","INCLINATION":"53.2178","SITE":"AFWTR","MEAN_MOTION_DDOT":"0.0000000000000","PERIOD":"95.437","RA_OF_ASC_NODE":"236.1751","EPOCH":"2022-12-15T17:32:03.532416","BSTAR":"0.00011340000000","OBJECT_NAME":"STARLINK-3625","SEMIMAJOR_AXIS":"6917.877","ELEMENT_SET_NO":"999","APOAPSIS":"541.666","DECAY_DATE":null,"MEAN_MOTION_DOT":"0.00001517","FILE":"3702726","REV_AT_EPOCH":"4446","ARG_OF_PERICENTER":"24.5950","EPHEMERIS_TYPE":"0","TLE_LINE2":"2 51777  53.2178 236.1751 0002781  24.5950 335.5175 15.08841160 44464","GP_ID":"220530089","OBJECT_TYPE":"PAYLOAD","NORAD_CAT_ID":"51777","REF_FRAME":"TEME","CENTER_NAME":"EARTH","COUNTRY_CODE":"US"},{"INCLINATION":"53.2167","PERIAPSIS":"538.023","MEAN_ELEMENT_THEORY":"SGP4","RA_OF_ASC_NODE":"225.8017","PERIOD":"95.437","MEAN_MOTION_DDOT":"0.0000000000000","SITE":"AFWTR","MEAN_ANOMALY":"323.4313","CLASSIFICATION_TYPE":"U","TIME_SYSTEM":"UTC","RCS_SIZE":"LARGE","MEAN_MOTION":"15.08841906","TLE_LINE1":"1 51778U 22017L   22349.80975325  .00000482  00000-0  48399-4 0  9990","LAUNCH_DATE":"2022-02-25","ECCENTRICITY":"0.00024820","OBJECT_ID":"2022-017L","OBJECT_TYPE":"PAYLOAD","GP_ID":"220528838","TLE_LINE2":"2 51778  53.2167 225.8017 0002482  36.6849 323.4313 15.08841906 44437","COUNTRY_CODE":"US","CENTER_NAME":"EARTH","REF_FRAME":"TEME","NORAD_CAT_ID":"51778","ELEMENT_SET_NO":"999","SEMIMAJOR_AXIS":"6917.875","OBJECT_NAME":"STARLINK-3615","BSTAR":"0.00004839900000","EPOCH":"2022-12-15T19:26:02.680800","ARG_OF_PERICENTER":"36.6849","EPHEMERIS_TYPE":"0","REV_AT_EPOCH":"4443","MEAN_MOTION_DOT":"0.00000482","FILE":"3702726","APOAPSIS":"541.457","DECAY_DATE":null}];
